start=new Date('2022-11-24T00:00:00.000Z').valueOf();
sats=[{"BSTAR":"0.00000341800000","COUNTRY_CODE":"US","LAUNCH_DATE":"2021-05-26","INCLINATION":"53.0550","ARG_OF_PERICENTER":"70.3725","NORAD_CAT_ID":"48665","RCS_SIZE":"LARGE","ELEMENT_SET_NO":"999","PERIAPSIS":"546.276","TLE_LINE1":"1 48665U 21044AD  22327.78323802 -.00000231  00000-0  34180-5 0  9997","APOAPSIS":"548.151","MEAN_ELEMENT_THEORY":"SGP4","SITE":"AFETR","MEAN_MOTION_DOT":"-0.00000231","MEAN_MOTION":"15.06399936","EPOCH":"2022-11-23T18:47:51.764928","SEMIMAJOR_AXIS":"6925.349","TLE_LINE2":"2 48665  53.0550 107.1814 0001354  70.3725 289.7410 15.06399936 82695","OBJECT_TYPE":"PAYLOAD","FILE":"3668355","CLASSIFICATION_TYPE":"U","REF_FRAME":"TEME","GP_ID":"218600463","RA_OF_ASC_NODE":"107.1814","EPHEMERIS_TYPE":"0","PERIOD":"95.592","OBJECT_ID":"2021-044AD","MEAN_ANOMALY":"289.7410","ECCENTRICITY":"0.00013540","OBJECT_NAME":"STARLINK-2653","TIME_SYSTEM":"UTC","REV_AT_EPOCH":"8269","CENTER_NAME":"EARTH","DECAY_DATE":null,"MEAN_MOTION_DDOT":"0.0000000000000"},{"APOAPSIS":"547.644","TLE_LINE1":"1 48666U 21044AE  22327.39724746 -.00001707  00000-0 -95791-4 0  9991","MEAN_ELEMENT_THEORY":"SGP4","SITE":"AFETR","PERIAPSIS":"546.903","ELEMENT_SET_NO":"999","NORAD_CAT_ID":"48666","RCS_SIZE":"LARGE","BSTAR":"-0.00009579100000","COUNTRY_CODE":"US","LAUNCH_DATE":"2021-05-26","INCLINATION":"53.0554","ARG_OF_PERICENTER":"48.2946","REV_AT_EPOCH":"8262","CENTER_NAME":"EARTH","DECAY_DATE":null,"MEAN_MOTION_DDOT":"0.0000000000000","PERIOD":"95.593","OBJECT_ID":"2021-044AE","ECCENTRICITY":"0.00005350","MEAN_ANOMALY":"311.8089","TIME_SYSTEM":"UTC","OBJECT_NAME":"STARLINK-2666","OBJECT_TYPE":"PAYLOAD","FILE":"3668134","CLASSIFICATION_TYPE":"U","REF_FRAME":"TEME","GP_ID":"218543250","RA_OF_ASC_NODE":"109.4049","EPHEMERIS_TYPE":"0","MEAN_MOTION_DOT":"-0.00001707","MEAN_MOTION":"15.06380437","EPOCH":"2022-11-23T09:32:02.180544","SEMIMAJOR_AXIS":"6925.409","TLE_LINE2":"2 48666  53.0554 109.4049 0000535  48.2946 311.8089 15.06380437 82622"},{"OBJECT_TYPE":"PAYLOAD","FILE":"3668355","CLASSIFICATION_TYPE":"U","REF_FRAME":"TEME","GP_ID":"218599969","EPHEMERIS_TYPE":"0","RA_OF_ASC_NODE":"106.9781","MEAN_MOTION_DOT":"0.00000418","MEAN_MOTION":"15.06390576","EPOCH":"2022-11-23T19:58:13.891872","SEMIMAJOR_AXIS":"6925.377","TLE_LINE2":"2 48667  53.0555 106.9781 0001277  92.8758 267.2377 15.06390576 82707","REV_AT_EPOCH":"8270","DECAY_DATE":null,"CENTER_NAME":"EARTH","MEAN_MOTION_DDOT":"0.0000000000000","PERIOD":"95.593","OBJECT_ID":"2021-044AF","ECCENTRICITY":"0.00012770","MEAN_ANOMALY":"267.2377","TIME_SYSTEM":"UTC","OBJECT_NAME":"STARLINK-2735","NORAD_CAT_ID":"48667","RCS_SIZE":"LARGE","BSTAR":"0.00004694500000","COUNTRY_CODE":"US","LAUNCH_DATE":"2021-05-26","INCLINATION":"53.0555","ARG_OF_PERICENTER":"92.8758","MEAN_ELEMENT_THEORY":"SGP4","TLE_LINE1":"1 48667U 21044AF  22327.83210523  .00000418  00000-0  46945-4 0  9997","APOAPSIS":"548.127","SITE":"AFETR","ELEMENT_SET_NO":"999","PERIAPSIS":"546.358"},{"LAUNCH_DATE":"2021-05-26","ARG_OF_PERICENTER":"69.5513","INCLINATION":"53.0559","BSTAR":"-0.00007414900000","COUNTRY_CODE":"US","RCS_SIZE":"LARGE","NORAD_CAT_ID":"48668","PERIAPSIS":"546.332","ELEMENT_SET_NO":"999","TLE_LINE1":"1 48668U 21044AG  22327.69572927 -.00001385  00000-0 -74149-4 0  9994","APOAPSIS":"548.133","MEAN_ELEMENT_THEORY":"SGP4","SITE":"AFETR","TLE_LINE2":"2 48668  53.0559 107.5791 0001300  69.5513 290.5615 15.06393872 82680","SEMIMAJOR_AXIS":"6925.367","MEAN_MOTION_DOT":"-0.00001385","MEAN_MOTION":"15.06393872","EPOCH":"2022-11-23T16:41:51.008928","CLASSIFICATION_TYPE":"U","FILE":"3668355","EPHEMERIS_TYPE":"0","GP_ID":"218600220","RA_OF_ASC_NODE":"107.5791","REF_FRAME":"TEME","OBJECT_TYPE":"PAYLOAD","OBJECT_ID":"2021-044AG","TIME_SYSTEM":"UTC","OBJECT_NAME":"STARLINK-2738","MEAN_ANOMALY":"290.5615","ECCENTRICITY":"0.00013000","PERIOD":"95.593","MEAN_MOTION_DDOT":"0.0000000000000","CENTER_NAME":"EARTH","DECAY_DATE":null,"REV_AT_EPOCH":"8268"},{"PERIAPSIS":"546.404","ELEMENT_SET_NO":"999","SITE":"AFETR","TLE_LINE1":"1 48669U 21044AH  22327.69204519 -.00000886  00000-0 -40622-4 0  9998","APOAPSIS":"548.070","MEAN_ELEMENT_THEORY":"SGP4","INCLINATION":"53.0558","ARG_OF_PERICENTER":"98.5356","LAUNCH_DATE":"2021-05-26","COUNTRY_CODE":"US","BSTAR":"-0.00004062200000","NORAD_CAT_ID":"48669","RCS_SIZE":"LARGE","ECCENTRICITY":"0.00012030","MEAN_ANOMALY":"261.5769","OBJECT_NAME":"STARLINK-2707","TIME_SYSTEM":"UTC","OBJECT_ID":"2021-044AH","PERIOD":"95.593","CENTER_NAME":"EARTH","DECAY_DATE":null,"MEAN_MOTION_DDOT":"0.0000000000000","REV_AT_EPOCH":"8267","SEMIMAJOR_AXIS":"6925.372","TLE_LINE2":"2 48669  53.0558 107.5857 0001203  98.5356 261.5769 15.06392287 82678","EPOCH":"2022-11-23T16:36:32.704416","MEAN_MOTION_DOT":"-0.00000886","MEAN_MOTION":"15.06392287","REF_FRAME":"TEME","GP_ID":"218600964","EPHEMERIS_TYPE":"0","RA_OF_ASC_NODE":"107.5857","FILE":"3668355","CLASSIFICATION_TYPE":"U","OBJECT_TYPE":"PAYLOAD"},{"EPOCH":"2022-11-23T19:42:18.345888","MEAN_MOTION_DOT":"-0.00001154","MEAN_MOTION":"15.06393269","SEMIMAJOR_AXIS":"6925.369","TLE_LINE2":"2 48670  53.0556 107.0078 0001134  82.5783 277.5334 15.06393269 82696","OBJECT_TYPE":"PAYLOAD","REF_FRAME":"TEME","GP_ID":"218599219","EPHEMERIS_TYPE":"0","RA_OF_ASC_NODE":"107.0078","FILE":"3668355","CLASSIFICATION_TYPE":"U","PERIOD":"95.593","ECCENTRICITY":"0.00011340","MEAN_ANOMALY":"277.5334","OBJECT_NAME":"STARLINK-2763","TIME_SYSTEM":"UTC","OBJECT_ID":"2021-044AJ","REV_AT_EPOCH":"8269","CENTER_NAME":"EARTH","DECAY_DATE":null,"MEAN_MOTION_DDOT":"0.0000000000000","COUNTRY_CODE":"US","BSTAR":"-0.00005863200000","INCLINATION":"53.0556","ARG_OF_PERICENTER":"82.5783","LAUNCH_DATE":"2021-05-26","NORAD_CAT_ID":"48670","RCS_SIZE":"LARGE","ELEMENT_SET_NO":"999","PERIAPSIS":"546.449","SITE":"AFETR","APOAPSIS":"548.020","TLE_LINE1":"1 48670U 21044AJ  22327.82104567 -.00001154  00000-0 -58632-4 0  9996","MEAN_ELEMENT_THEORY":"SGP4"},{"TLE_LINE1":"1 48671U 21044AK  22327.68466489 -.00001254  00000-0 -65307-4 0  9993","APOAPSIS":"548.166","MEAN_ELEMENT_THEORY":"SGP4","SITE":"AFETR","PERIAPSIS":"546.313","ELEMENT_SET_NO":"999","RCS_SIZE":"LARGE","NORAD_CAT_ID":"48671","LAUNCH_DATE":"2021-05-26","ARG_OF_PERICENTER":"95.8922","INCLINATION":"53.0553","BSTAR":"-0.00006530700000","COUNTRY_CODE":"US","MEAN_MOTION_DDOT":"0.0000000000000","DECAY_DATE":null,"CENTER_NAME":"EARTH","REV_AT_EPOCH":"8267","OBJECT_ID":"2021-044AK","TIME_SYSTEM":"UTC","OBJECT_NAME":"STARLINK-2745","MEAN_ANOMALY":"264.2219","ECCENTRICITY":"0.00013380","PERIOD":"95.593","CLASSIFICATION_TYPE":"U","FILE":"3668355","EPHEMERIS_TYPE":"0","GP_ID":"218599469","RA_OF_ASC_NODE":"107.6317","REF_FRAME":"TEME","OBJECT_TYPE":"PAYLOAD","TLE_LINE2":"2 48671  53.0553 107.6317 0001338  95.8922 264.2219 15.06391475 82674","SEMIMAJOR_AXIS":"6925.375","MEAN_MOTION":"15.06391475","MEAN_MOTION_DOT":"-0.00001254","EPOCH":"2022-11-23T16:25:55.046496"},{"EPOCH":"2022-11-23T19:31:41.528640","MEAN_MOTION_DOT":"0.00000144","MEAN_MOTION":"15.06402915","TLE_LINE2":"2 48672  53.0555 107.0582 0001491  76.7340 283.3816 15.06402915 82696","SEMIMAJOR_AXIS":"6925.340","OBJECT_TYPE":"PAYLOAD","EPHEMERIS_TYPE":"0","GP_ID":"218600721","RA_OF_ASC_NODE":"107.0582","REF_FRAME":"TEME","CLASSIFICATION_TYPE":"U","FILE":"3668355","PERIOD":"95.592","TIME_SYSTEM":"UTC","OBJECT_NAME":"STARLINK-2705","ECCENTRICITY":"0.00014910","MEAN_ANOMALY":"283.3816","OBJECT_ID":"2021-044AL","REV_AT_EPOCH":"8269","MEAN_MOTION_DDOT":"0.0000000000000","DECAY_DATE":null,"CENTER_NAME":"EARTH","COUNTRY_CODE":"US","BSTAR":"0.00002856700000","ARG_OF_PERICENTER":"76.7340","INCLINATION":"53.0555","LAUNCH_DATE":"2021-05-26","RCS_SIZE":"LARGE","NORAD_CAT_ID":"48672","PERIAPSIS":"546.172","ELEMENT_SET_NO":"999","SITE":"AFETR","TLE_LINE1":"1 48672U 21044AL  22327.81367510  .00000144  00000-0  28567-4 0  9996","APOAPSIS":"548.237","MEAN_ELEMENT_THEORY":"SGP4"},{"SITE":"AFETR","TLE_LINE1":"1 48673U 21044AM  22327.80998986 -.00001166  00000-0 -59382-4 0  9999","APOAPSIS":"548.118","MEAN_ELEMENT_THEORY":"SGP4","ELEMENT_SET_NO":"999","PERIAPSIS":"546.338","NORAD_CAT_ID":"48673","RCS_SIZE":"LARGE","INCLINATION":"53.0529","ARG_OF_PERICENTER":"90.7695","LAUNCH_DATE":"2021-05-26","COUNTRY_CODE":"US","BSTAR":"-0.00005938200000","CENTER_NAME":"EARTH","DECAY_DATE":null,"MEAN_MOTION_DDOT":"0.0000000000000","REV_AT_EPOCH":"8269","MEAN_ANOMALY":"269.3441","ECCENTRICITY":"0.00012850","TIME_SYSTEM":"UTC","OBJECT_NAME":"STARLINK-2711","OBJECT_ID":"2021-044AM","PERIOD":"95.592","REF_FRAME":"TEME","RA_OF_ASC_NODE":"107.0704","GP_ID":"218600464","EPHEMERIS_TYPE":"0","FILE":"3668355","CLASSIFICATION_TYPE":"U","OBJECT_TYPE":"PAYLOAD","SEMIMAJOR_AXIS":"6925.363","TLE_LINE2":"2 48673  53.0529 107.0704 0001285  90.7695 269.3441 15.06395397 82697","EPOCH":"2022-11-23T19:26:23.123904","MEAN_MOTION_DOT":"-0.00001166","MEAN_MOTION":"15.06395397"},{"RCS_SIZE":"LARGE","NORAD_CAT_ID":"48674","COUNTRY_CODE":"US","BSTAR":"0.00008485700000","ARG_OF_PERICENTER":"70.1357","INCLINATION":"53.0549","LAUNCH_DATE":"2021-05-26","SITE":"AFETR","MEAN_ELEMENT_THEORY":"SGP4","TLE_LINE1":"1 48674U 21044AN  22327.87169932  .00000983  00000-0  84857-4 0  9997","APOAPSIS":"548.234","PERIAPSIS":"546.189","ELEMENT_SET_NO":"999","OBJECT_TYPE":"PAYLOAD","GP_ID":"218599720","RA_OF_ASC_NODE":"106.7869","EPHEMERIS_TYPE":"0","REF_FRAME":"TEME","CLASSIFICATION_TYPE":"U","FILE":"3668355","EPOCH":"2022-11-23T20:55:14.821248","MEAN_MOTION":"15.06400615","MEAN_MOTION_DOT":"0.00000983","TLE_LINE2":"2 48674  53.0549 106.7869 0001476  70.1357 289.9791 15.06400615 82705","SEMIMAJOR_AXIS":"6925.347","REV_AT_EPOCH":"8270","MEAN_MOTION_DDOT":"0.0000000000000","CENTER_NAME":"EARTH","DECAY_DATE":null,"PERIOD":"95.592","TIME_SYSTEM":"UTC","OBJECT_NAME":"STARLINK-2712","MEAN_ANOMALY":"289.9791","ECCENTRICITY":"0.00014760","OBJECT_ID":"2021-044AN"}];
